    semimajoraxisau: 1.3248939362152
    eccentricity: 0.25574780420857
    inclinationdegrees: 1.0774218503416
    longitudeofascnodedegrees: 317.09095638931
    argumentofperiapsisdegrees: 177.48329987049
    meananomalydegrees: 16.790848276033
    trueanomalydegrees: 28.805671132091
  - epochjd: 2458737.5
    dateutc: 43719
    semimajoraxisau: 1.3248939016463
    eccentricity: 0.25574774110643
    inclinationdegrees: 1.0774209731745
    longitudeofascnodedegrees: 317.09093280567
    argumentofperiapsisdegrees: 177.48335332369
    meananomalydegrees: 17.437130181947
    trueanomalydegrees: 29.87545203634
  - epochjd: 2458738.5
    dateutc: 43720
    semimajoraxisau: 1.3248938619208
    eccentricity: 0.25574767509798
    inclinationdegrees: 1.0774201545389
    longitudeofascnodedegrees: 317.09090976723
    argumentofperiapsisdegrees: 177.48340487583
    meananomalydegrees: 18.08341307992
    trueanomalydegrees: 30.941085043578
  - epochjd: 2458739.5
    dateutc: 43721
    semimajoraxisau: 1.3248938178041
    eccentricity: 0.25574760663375
    inclinationdegrees: 1.0774193915859
    longitudeofascnodedegrees: 317.09088732211
    argumentofperiapsisdegrees: 177.48345455712
    meananomalydegrees: 18.729696918332
    trueanomalydegrees: 32.002461726554
  - epochjd: 2458740.5
    dateutc: 43722
    semimajoraxisau: 1.3248937700555
    eccentricity: 0.25574753614948
    inclinationdegrees: 1.0774186814624
    longitudeofascnodedegrees: 317.09086550983
    argumentofperiapsisdegrees: 177.48350240876
    meananomalydegrees: 19.375981641928
    trueanomalydegrees: 33.059477819715
  - epochjd: 2458741.5
    dateutc: 43723
    semimajoraxisau: 1.3248937194288
    eccentricity: 0.25574746406728
    inclinationdegrees: 1.077418021327
    longitudeofascnodedegrees: 317.09084436171
    argumentofperiapsisdegrees: 177.48354848208
    meananomalydegrees: 20.022267192086
    trueanomalydegrees: 34.112033245902
  - epochjd: 2458742.5
    dateutc: 43724
    semimajoraxisau: 1.3248936666728
    eccentricity: 0.25574739079644
    inclinationdegrees: 1.0774174083648
    longitudeofascnodedegrees: 317.09082390123
    argumentofperiapsisdegrees: 177.4835928378
    meananomalydegrees: 20.668553507083
    trueanomalydegrees: 35.160032134288
  - epochjd: 2458743.5
    dateutc: 43725
    semimajoraxisau: 1.324893612531
    eccentricity: 0.25574731673395
    inclinationdegrees: 1.0774168398007
    longitudeofascnodedegrees: 317.09080414447
    argumentofperiapsisdegrees: 177.48363554518
    meananomalydegrees: 21.314840522336
    trueanomalydegrees: 36.203382829807
  - epochjd: 2458744.5
    dateutc: 43726
    semimajoraxisau: 1.3248935577412
    eccentricity: 0.25574724226485
    inclinationdegrees: 1.0774163129115
    longitudeofascnodedegrees: 317.09078510056
    argumentofperiapsisdegrees: 177.48367668123
    meananomalydegrees: 21.961128170627
    trueanomalydegrees: 37.241997894357
  - epochjd: 2458745.5
    dateutc: 43727
    semimajoraxisau: 1.3248935030344
    eccentricity: 0.2557471677623
    inclinationdegrees: 1.0774158250366
    longitudeofascnodedegrees: 317.09076677215
    argumentofperiapsisdegrees: 177.48371633003
    meananomalydegrees: 22.607416382323
    trueanomalydegrees: 38.275794100073
  - epochjd: 2458746.5
    dateutc: 43728
    semimajoraxisau: 1.3248934491341
    eccentricity: 0.25574709358761
    inclinationdegrees: 1.0774153735858
    longitudeofascnodedegrees: 317.09074915583
    argumentofperiapsisdegrees: 177.48375458194
    meananomalydegrees: 23.253705085583
    trueanomalydegrees: 39.304692414993
  - epochjd: 2458747.5
    dateutc: 43729
    semimajoraxisau: 1.3248933967545
    eccentricity: 0.2557470200901
    inclinationdegrees: 1.0774149560474
    longitudeofascnodedegrees: 317.09073224259
    argumentofperiapsisdegrees: 177.483791533
    meananomalydegrees: 23.899994206552
    trueanomalydegrees: 40.328617981443
  - epochjd: 2458748.5
    dateutc: 43730
    semimajoraxisau: 1.3248933466
    eccentricity: 0.255746947607
    inclinationdegrees: 1.0774145699931
    longitudeofascnodedegrees: 317.09071601826
    argumentofperiapsisdegrees: 177.48382728428
    meananomalydegrees: 24.546283669549
    trueanomalydegrees: 41.347500087509
  - epochjd: 2458749.5
    dateutc: 43731
    semimajoraxisau: 1.3248932993636
    eccentricity: 0.25574687646329
    inclinationdegrees: 1.0774142130828
    longitudeofascnodedegrees: 317.09070046389
    argumentofperiapsisdegrees: 177.48386194129
    meananomalydegrees: 25.192573397245
    trueanomalydegrees: 42.361272131929
  - epochjd: 2458750.5
    dateutc: 43732
    semimajoraxisau: 1.3248932557258
    eccentricity: 0.25574680697149
    inclinationdegrees: 1.0774138830682
    longitudeofascnodedegrees: 317.09068555618
    argumentofperiapsisdegrees: 177.48389561342
    meananomalydegrees: 25.838863310835
    trueanomalydegrees: 43.369871582793
  - epochjd: 2458751.5
    dateutc: 43733
    semimajoraxisau: 1.3248932163533
    eccentricity: 0.2557467394316
    inclinationdegrees: 1.0774135777945
    longitudeofascnodedegrees: 317.09067126781
    argumentofperiapsisdegrees: 177.48392841344
    meananomalydegrees: 26.485153330202
    trueanomalydegrees: 44.373239930412
  - epochjd: 2458752.5
    dateutc: 43734
    semimajoraxisau: 1.3248931818985
    eccentricity: 0.25574667413095
    inclinationdegrees: 1.0774132952028
    longitudeofascnodedegrees: 317.09065756786
    argumentofperiapsisdegrees: 177.48396045702
    meananomalydegrees: 27.131443374076
    trueanomalydegrees: 45.371322634744
  - epochjd: 2458753.5
    dateutc: 43735
    semimajoraxisau: 1.3248931529983
    eccentricity: 0.25574661134414
    inclinationdegrees: 1.0774130333305
    longitudeofascnodedegrees: 317.09064442209
    argumentofperiapsisdegrees: 177.48399186225
    meananomalydegrees: 27.777733360188
    trueanomalydegrees: 46.364069067739
  - epochjd: 2458754.5
    dateutc: 43736
    semimajoraxisau: 1.324893130273
    eccentricity: 0.25574655133304
    inclinationdegrees: 1.0774127903116
    longitudeofascnodedegrees: 317.09063179329
    argumentofperiapsisdegrees: 177.48402274923
    meananomalydegrees: 28.424023205417
    trueanomalydegrees: 47.351432450996
  - epochjd: 2458755.5
    dateutc: 43737
    semimajoraxisau: 1.3248931143261
    eccentricity: 0.25574649434678
    inclinationdegrees: 1.077412564377
    longitudeofascnodedegrees: 317.0906196416
    argumentofperiapsisdegrees: 177.48405323964
    meananomalydegrees: 29.070312825928
    trueanomalydegrees: 48.333369789089
  - epochjd: 2458756.5
    dateutc: 43738
    semimajoraxisau: 1.3248931057435
    eccentricity: 0.25574644062187
    inclinationdegrees: 1.0774123538533
    longitudeofascnodedegrees: 317.09060792474
    argumentofperiapsisdegrees: 177.48408345641
    meananomalydegrees: 29.716602137312
    trueanomalydegrees: 49.309841798954
  - epochjd: 2458757.5
    dateutc: 43739
    semimajoraxisau: 1.3248931050929
    eccentricity: 0.25574639038228
    inclinationdegrees: 1.0774121571621
    longitudeofascnodedegrees: 317.09059659836
    argumentofperiapsisdegrees: 177.48411352332
    meananomalydegrees: 30.362891054716
    trueanomalydegrees: 50.280812835684
  - epochjd: 2458758.5
    dateutc: 43740
    semimajoraxisau: 1.3248931129233
    eccentricity: 0.25574634383963
    inclinationdegrees: 1.0774119728189
    longitudeofascnodedegrees: 317.09058561625
    argumentofperiapsisdegrees: 177.48414356468
    meananomalydegrees: 31.009179492964
    trueanomalydegrees: 51.246250815096
  - epochjd: 2458759.5
    dateutc: 43741
    semimajoraxisau: 1.3248931297652
    eccentricity: 0.25574630119343
    inclinationdegrees: 1.0774117994312
    longitudeofascnodedegrees: 317.09057493058
    argumentofperiapsisdegrees: 177.484173705
    meananomalydegrees: 31.655467366675
    trueanomalydegrees: 52.206127133423
  - epochjd: 2458760.5
    dateutc: 43742
    semimajoraxisau: 1.3248931561298
    eccentricity: 0.25574626263128
    inclinationdegrees: 1.0774116356972
    longitudeofascnodedegrees: 317.09056449216
    argumentofperiapsisdegrees: 177.48420406875
    meananomalydegrees: 32.301754590373
    trueanomalydegrees: 53.160416584463
  - epochjd: 2458761.5
    dateutc: 43743
    semimajoraxisau: 1.3248931925092
    eccentricity: 0.25574622832926
    inclinationdegrees: 1.0774114804038
    longitudeofascnodedegrees: 317.09055425061
    argumentofperiapsisdegrees: 177.48423478001
    meananomalydegrees: 32.948041078581
    trueanomalydegrees: 54.109097274525
  - epochjd: 2458762.5
    dateutc: 43744
    semimajoraxisau: 1.3248932393764
    eccentricity: 0.25574619845227
    inclinationdegrees: 1.0774113324246
    longitudeofascnodedegrees: 317.09054415463
    argumentofperiapsisdegrees: 177.48426596229
    meananomalydegrees: 33.594326745922
    trueanomalydegrees: 55.052150535483
  - epochjd: 2458763.5
    dateutc: 43745
    semimajoraxisau: 1.3248932971852
    eccentricity: 0.2557461731544
    inclinationdegrees: 1.0774111907177
    longitudeofascnodedegrees: 317.09053415214
    argumentofperiapsisdegrees: 177.48429773824
    meananomalydegrees: 34.240611507193
    trueanomalydegrees: 55.989560836247
  - epochjd: 2458764.5
    dateutc: 43746
    semimajoraxisau: 1.3248933663707
    eccentricity: 0.25574615257943
    inclinationdegrees: 1.077411054324
    longitudeofascnodedegrees: 317.09052419049
    argumentofperiapsisdegrees: 177.48433022947
    meananomalydegrees: 34.886895277433
    trueanomalydegrees: 56.921315692939
  - epochjd: 2458764.5
    dateutc: 43746
    semimajoraxisau: 1.3248933663707
    eccentricity: 0.25574615257943
    inclinationdegrees: 1.077411054324
    longitudeofascnodedegrees: 317.09052419049
    argumentofperiapsisdegrees: 177.48433022947
    meananomalydegrees: 34.886895277433
    trueanomalydegrees: 56.921315692939
  - epochjd: 2458884.8432571
    dateutc: 43866,3432523148
    semimajoraxisau: 1.3249873600224
    eccentricity: 0.25577097739655
    inclinationdegrees: 1.0774452916284
